[{"CCSDS_OMM_VERS":"2.0","COMMENT":"GENERATED VIA SPACE-TRACK.ORG API","CREATION_DATE":"2024-02-16T17:39:09","ORIGINATOR":"18 SPCS","OBJECT_NAME":"NAVSTAR 56 (USA 180)","OBJECT_ID":"2004-045A","CENTER_NAME":"EARTH","REF_FRAME":"TEME","TIME_SYSTEM":"UTC","MEAN_ELEMENT_THEORY":"SGP4","EPOCH":"2024-02-16T08:55:27.648192","MEAN_MOTION":"2.00559198","ECCENTRICITY":"0.01641010","INCLINATION":"55.4412","RA_OF_ASC_NODE":"359.0850","ARG_OF_PERICENTER":"288.5830","MEAN_ANOMALY":"159.5252","EPHEMERIS_TYPE":"0","CLASSIFICATION_TYPE":"U","NORAD_CAT_ID":"28474","ELEMENT_SET_NO":"999","REV_AT_EPOCH":"14134","BSTAR":"0.00000000000000","MEAN_MOTION_DOT":"-0.00000102","MEAN_MOTION_DDOT":"0.0000000000000","SEMIMAJOR_AXIS":"26560.737","PERIOD":"717.993","APOAPSIS":"20618.466","PERIAPSIS":"19746.737","OBJECT_TYPE":"PAYLOAD","RCS_SIZE":"LARGE","COUNTRY_CODE":"US","LAUNCH_DATE":"2004-11-06","SITE":"AFETR","DECAY_DATE":null,"FILE":"4190317","GP_ID":"249396207","TLE_LINE0":"0 NAVSTAR 56 (USA 180)","TLE_LINE1":"1 28474U 04045A   24047.37184778 -.00000102  00000-0  00000-0 0  9994","TLE_LINE2":"2 28474  55.4412 359.0850 0164101 288.5830 159.5252  2.00559198141346"},{"CCSDS_OMM_VERS":"2.0","COMMENT":"GENERATED VIA SPACE-TRACK.ORG API","CREATION_DATE":"2024-02-17T00:46:17","ORIGINATOR":"18 SPCS","OBJECT_NAME":"NAVSTAR 65 (USA 213)","OBJECT_ID":"2010-022A","CENTER_NAME":"EARTH","REF_FRAME":"TEME","TIME_SYSTEM":"UTC","MEAN_ELEMENT_THEORY":"SGP4","EPOCH":"2024-02-16T09:07:30.068832","MEAN_MOTION":"2.00570433","ECCENTRICITY":"0.01161090","INCLINATION":"54.4936","RA_OF_ASC_NODE":"242.9176","ARG_OF_PERICENTER":"61.1085","MEAN_ANOMALY":"298.2177","EPHEMERIS_TYPE":"0","CLASSIFICATION_TYPE":"U","NORAD_CAT_ID":"36585","ELEMENT_SET_NO":"999","REV_AT_EPOCH":"10050","BSTAR":"0.00000000000000","MEAN_MOTION_DOT":"0.00000067","MEAN_MOTION_DDOT":"0.0000000000000","SEMIMAJOR_AXIS":"26559.745","PERIOD":"717.952","APOAPSIS":"20489.992","PERIAPSIS":"19873.227","OBJECT_TYPE":"PAYLOAD","RCS_SIZE":"LARGE","COUNTRY_CODE":"US","LAUNCH_DATE":"2010-05-28","SITE":"AFETR","DECAY_DATE":null,"FILE":"4190419","GP_ID":"249421130","TLE_LINE0":"0 NAVSTAR 65 (USA 213)","TLE_LINE1":"1 36585U 10022A   24047.38020913  .00000067  00000-0  00000+0 0  9997","TLE_LINE2":"2 36585  54.4936 242.9176 0116109  61.1085 298.2177  2.00570433100506"},{"CCSDS_OMM_VERS":"2.0","COMMENT":"GENERATED VIA SPACE-TRACK.ORG API","CREATION_DATE":"2024-02-16T17:39:09","ORIGINATOR":"18 SPCS","OBJECT_NAME":"NAVSTAR 65 (USA 213)","OBJECT_ID":"2010-022A","CENTER_NAME":"EARTH","REF_FRAME":"TEME","TIME_SYSTEM":"UTC","MEAN_ELEMENT_THEORY":"SGP4","EPOCH":"2024-02-16T09:07:30.068832","MEAN_MOTION":"2.00570433","ECCENTRICITY":"0.01161090","INCLINATION":"54.4936","RA_OF_ASC_NODE":"242.9176","ARG_OF_PERICENTER":"61.1085","MEAN_ANOMALY":"298.2177","EPHEMERIS_TYPE":"0","CLASSIFICATION_TYPE":"U","NORAD_CAT_ID":"36585","ELEMENT_SET_NO":"999","REV_AT_EPOCH":"10050","BSTAR":"0.00000000000000","MEAN_MOTION_DOT":"0.00000067","MEAN_MOTION_DDOT":"0.0000000000000","SEMIMAJOR_AXIS":"26559.745","PERIOD":"717.952","APOAPSIS":"20489.992","PERIAPSIS":"19873.227","OBJECT_TYPE":"PAYLOAD","RCS_SIZE":"LARGE","COUNTRY_CODE":"US","LAUNCH_DATE":"2010-05-28","SITE":"AFETR","DECAY_DATE":null,"FILE":"4190317","GP_ID":"249401284","TLE_LINE0":"0 NAVSTAR 65 (USA 213)","TLE_LINE1":"1 36585U 10022A   24047.38020913  .00000067  00000-0  00000-0 0  9998","TLE_LINE2":"2 36585  54.4936 242.9176 0116109  61.1085 298.2177  2.00570433100506"},{"CCSDS_OMM_VERS":"2.0","COMMENT":"GENERATED VIA SPACE-TRACK.ORG API","CREATION_DATE":"2024-02-17T03:47:55","ORIGINATOR":"18 SPCS","OBJECT_NAME":"NAVSTAR 70 (USA 251)","OBJECT_ID":"2014-026A","CENTER_NAME":"EARTH","REF_FRAME":"TEME","TIME_SYSTEM":"UTC","MEAN_ELEMENT_THEORY":"SGP4","EPOCH":"2024-02-16T09:24:39.436704","MEAN_MOTION":"2.00576837","ECCENTRICITY":"0.00330980","INCLINATION":"56.7116","RA_OF_ASC_NODE":"4.5881","ARG_OF_PERICENTER":"313.0325","MEAN_ANOMALY":"46.6850","EPHEMERIS_TYPE":"0","CLASSIFICATION_TYPE":"U","NORAD_CAT_ID":"39741","ELEMENT_SET_NO":"999","REV_AT_EPOCH":"7145","BSTAR":"0.00000000000000","MEAN_MOTION_DOT":"-0.00000096","MEAN_MOTION_DDOT":"0.0000000000000","SEMIMAJOR_AXIS":"26559.180","PERIOD":"717.929","APOAPSIS":"20268.950","PERIAPSIS":"20093.139","OBJECT_TYPE":"PAYLOAD","RCS_SIZE":"LARGE","COUNTRY_CODE":"US","LAUNCH_DATE":"2014-05-17","SITE":"AFETR","DECAY_DATE":null,"FILE":"4190592","GP_ID":"249437078","TLE_LINE0":"0 NAVSTAR 70 (USA 251)","TLE_LINE1":"1 39741U 14026A   24047.39212311 -.00000096  00000-0  00000-0 0  9992","TLE_LINE2":"2 39741  56.7116   4.5881 0033098 313.0325  46.6850  2.00576837 71452"},{"CCSDS_OMM_VERS":"2.0","COMMENT":"GENERATED VIA SPACE-TRACK.ORG API","CREATION_DATE":"2024-02-16T17:39:09","ORIGINATOR":"18 SPCS","OBJECT_NAME":"NAVSTAR 58 (USA 190)","OBJECT_ID":"2006-042A","CENTER_NAME":"EARTH","REF_FRAME":"TEME","TIME_SYSTEM":"UTC","MEAN_ELEMENT_THEORY":"SGP4","EPOCH":"2024-02-16T09:36:35.625312","MEAN_MOTION":"2.00562164","ECCENTRICITY":"0.01044420","INCLINATION":"54.6806","RA_OF_ASC_NODE":"185.1114","ARG_OF_PERICENTER":"36.8062","MEAN_ANOMALY":"310.8447","EPHEMERIS_TYPE":"0","CLASSIFICATION_TYPE":"U","NORAD_CAT_ID":"29486","ELEMENT_SET_NO":"999","REV_AT_EPOCH":"12730","BSTAR":"0.00000000000000","MEAN_MOTION_DOT":"0.00000038","MEAN_MOTION_DDOT":"0.0000000000000","SEMIMAJOR_AXIS":"26560.475","PERIOD":"717.982","APOAPSIS":"20459.743","PERIAPSIS":"19904.937","OBJECT_TYPE":"PAYLOAD","RCS_SIZE":"LARGE","COUNTRY_CODE":"US","LAUNCH_DATE":"2006-09-25","SITE":"AFETR","DECAY_DATE":null,"FILE":"4190317","GP_ID":"249396449","TLE_LINE0":"0 NAVSTAR 58 (USA 190)","TLE_LINE1":"1 29486U 06042A   24047.40041233  .00000038  00000-0  00000-0 0  9996","TLE_LINE2":"2 29486  54.6806 185.1114 0104442  36.8062 310.8447  2.00562164127307"},{"CCSDS_OMM_VERS":"2.0","COMMENT":"GENERATED VIA SPACE-TRACK.ORG API","CREATION_DATE":"2024-02-16T17:39:09","ORIGINATOR":"18 SPCS","OBJECT_NAME":"NAVSTAR 77 (USA 289)","OBJECT_ID":"2018-109A","CENTER_NAME":"EARTH","REF_FRAME":"TEME","TIME_SYSTEM":"UTC","MEAN_ELEMENT_THEORY":"SGP4","EPOCH":"2024-02-16T10:45:36.112032","MEAN_MOTION":"2.00573954","ECCENTRICITY":"0.00288350","INCLINATION":"55.2488","RA_OF_ASC_NODE":"125.8385","ARG_OF_PERICENTER":"194.0276","MEAN_ANOMALY":"176.3317","EPHEMERIS_TYPE":"0","CLASSIFICATION_TYPE":"U","NORAD_CAT_ID":"43873","ELEMENT_SET_NO":"999","REV_AT_EPOCH":"3799","BSTAR":"0.00000000000000","MEAN_MOTION_DOT":"-0.00000037","MEAN_MOTION_DDOT":"0.0000000000000","SEMIMAJOR_AXIS":"26559.434","PERIOD":"717.940","APOAPSIS":"20257.883","PERIAPSIS":"20104.715","OBJECT_TYPE":"PAYLOAD","RCS_SIZE":"LARGE","COUNTRY_CODE":"US","LAUNCH_DATE":"2018-12-23","SITE":"AFETR","DECAY_DATE":null,"FILE":"4190317","GP_ID":"249405640","TLE_LINE0":"0 NAVSTAR 77 (USA 289)","TLE_LINE1":"1 43873U 18109A   24047.44833463 -.00000037  00000-0  00000-0 0  9997","TLE_LINE2":"2 43873  55.2488 125.8385 0028835 194.0276 176.3317  2.00573954 37997"},{"CCSDS_OMM_VERS":"2.0","COMMENT":"GENERATED VIA SPACE-TRACK.ORG API","CREATION_DATE":"2024-02-16T14:46:16","ORIGINATOR":"18 SPCS","OBJECT_NAME":"NAVSTAR 71 (USA 256)","OBJECT_ID":"2014-045A","CENTER_NAME":"EARTH","REF_FRAME":"TEME","TIME_SYSTEM":"UTC","MEAN_ELEMENT_THEORY":"SGP4","EPOCH":"2024-02-16T11:32:00.612960","MEAN_MOTION":"2.00557585","ECCENTRICITY":"0.00256960","INCLINATION":"54.8764","RA_OF_ASC_NODE":"122.4716","ARG_OF_PERICENTER":"117.7041","MEAN_ANOMALY":"242.6003","EPHEMERIS_TYPE":"0","CLASSIFICATION_TYPE":"U","NORAD_CAT_ID":"40105","ELEMENT_SET_NO":"999","REV_AT_EPOCH":"6988","BSTAR":"0.00000000000000","MEAN_MOTION_DOT":"-0.00000039","MEAN_MOTION_DDOT":"0.0000000000000","SEMIMAJOR_AXIS":"26560.879","PERIOD":"717.998","APOAPSIS":"20250.995","PERIAPSIS":"20114.493","OBJECT_TYPE":"PAYLOAD","RCS_SIZE":"LARGE","COUNTRY_CODE":"US","LAUNCH_DATE":"2014-08-02","SITE":"AFETR","DECAY_DATE":null,"FILE":"4190236","GP_ID":"249385830","TLE_LINE0":"0 NAVSTAR 71 (USA 256)","TLE_LINE1":"1 40105U 14045A   24047.48056265 -.00000039  00000-0  00000+0 0  9999","TLE_LINE2":"2 40105  54.8764 122.4716 0025696 117.7041 242.6003  2.00557585 69883"},{"CCSDS_OMM_VERS":"2.0","COMMENT":"GENERATED VIA SPACE-TRACK.ORG API","CREATION_DATE":"2024-02-16T17:39:09","ORIGINATOR":"18 SPCS","OBJECT_NAME":"NAVSTAR 71 (USA 256)","OBJECT_ID":"2014-045A","CENTER_NAME":"EARTH","REF_FRAME":"TEME","TIME_SYSTEM":"UTC","MEAN_ELEMENT_THEORY":"SGP4","EPOCH":"2024-02-16T11:32:00.612960","MEAN_MOTION":"2.00557585","ECCENTRICITY":"0.00256960","INCLINATION":"54.8764","RA_OF_ASC_NODE":"122.4716","ARG_OF_PERICENTER":"117.7041","MEAN_ANOMALY":"242.6003","EPHEMERIS_TYPE":"0","CLASSIFICATION_TYPE":"U","NORAD_CAT_ID":"40105","ELEMENT_SET_NO":"999","REV_AT_EPOCH":"6899","BSTAR":"0.00000000000000","MEAN_MOTION_DOT":"-0.00000039","MEAN_MOTION_DDOT":"0.0000000000000","SEMIMAJOR_AXIS":"26560.879","PERIOD":"717.998","APOAPSIS":"20250.995","PERIAPSIS":"20114.493","OBJECT_TYPE":"PAYLOAD","RCS_SIZE":"LARGE","COUNTRY_CODE":"US","LAUNCH_DATE":"2014-08-02","SITE":"AFETR","DECAY_DATE":null,"FILE":"4190317","GP_ID":"249402873","TLE_LINE0":"0 NAVSTAR 71 (USA 256)","TLE_LINE1":"1 40105U 14045A   24047.48056265 -.00000039  00000-0  00000-0 0  9990","TLE_LINE2":"2 40105  54.8764 122.4716 0025696 117.7041 242.6003  2.00557585 68994"}]